ONEWEB-0716             
1 55177U 23004AP  25268.93915817  .00000047  00000+0  88758-4 0  9990
2 55177  87.9062  58.4310 0001451  92.6550 267.4747 13.17649545132781
ONEWEB-0717             
1 55178U 23004AQ  25268.92227926  .00000115  00000+0  26356-3 0  9998
2 55178  87.9075  58.3981 0002391  89.8684 270.2722 13.17649221132831
ONEWEB-0719             
1 55179U 23004AR  25268.85647731  .00000013  00000+0  15073-5 0  9994
2 55179  87.9072  58.3940 0001534  87.3764 272.7543 13.17647980132775
ONEWEB-0530             
1 55796U 23029A   25268.69925666 -.00000006  00000+0 -46908-4 0  9998
2 55796  87.9254 327.2231 0002223  86.8022 273.3365 13.20772500126234
ONEWEB-0534             
1 55797U 23029B   25268.68662137  .00000013  00000+0 -72053-6 0  9998
2 55797  87.9247 327.2290 0001739  96.3906 263.7425 13.20771572126238
ONEWEB-0556             
1 55798U 23029C   25268.69295300 -.00000059  00000+0 -17615-3 0  9995
2 55798  87.9254 327.2237 0001646  72.6588 287.4725 13.20772406126231
ONEWEB-0562             
1 55799U 23029D   25268.68032413  .00000023  00000+0  24583-4 0  9991
2 55799  87.9248 327.2128 0002285  73.9217 286.2168 13.20770200126235
ONEWEB-0563             
1 55800U 23029E   25268.90124387 -.00000029  00000+0 -10290-3 0  9998
2 55800  87.9260 327.1910 0001635 130.3113 229.8164 13.20756553126257
